[{"OBJECT_NAME":"SPAWAR-CAL-O","OBJECT_ID":"2018-099J","EPOCH":"2026-03-09T17:45:15.080832","MEAN_MOTION":15.31356755,"ECCENTRICITY":0.00072392,"INCLINATION":97.4452,"RA_OF_ASC_NODE":132.0993,"ARG_OF_PERICENTER":285.067,"MEAN_ANOMALY":74.977,"EPHEMERIS_TYPE":0,"CLASSIFICATION_TYPE":"U","NORAD_CAT_ID":43766,"ELEMENT_SET_NO":999,"REV_AT_EPOCH":39828,"BSTAR":0.00069663212,"MEAN_MOTION_DOT":0.00021069,"MEAN_MOTION_DDOT":0},{"OBJECT_NAME":"STARLINK-35454","OBJECT_ID":"2025-245C","EPOCH":"2026-03-09T21:12:29.316096","MEAN_MOTION":15.30201576,"ECCENTRICITY":0.00011603,"INCLINATION":53.1571,"RA_OF_ASC_NODE":283.1826,"ARG_OF_PERICENTER":89.586,"MEAN_ANOMALY":270.5273,"EPHEMERIS_TYPE":0,"CLASSIFICATION_TYPE":"U","NORAD_CAT_ID":66236,"ELEMENT_SET_NO":999,"REV_AT_EPOCH":2112,"BSTAR":0.00087154189,"MEAN_MOTION_DOT":0.00025543,"MEAN_MOTION_DDOT":0}]
